NORAD_CAT_ID,OBJECT_NAME,OBJECT_TYPE,EPOCH,MEAN_MOTION,ECCENTRICITY,INCLINATION,RA_OF_ASC_NODE,ARG_OF_PERICENTER,MEAN_ANOMALY,BSTAR,MEAN_MOTION_DOT,MEAN_MOTION_DDOT,TLE_LINE0,TLE_LINE1,TLE_LINE2,SEMIMAJOR_AXIS,PERIOD,APOGEE,PERIGEE,DECAYED
53550.0,STARLINK-4518,PAYLOAD,2022-09-11 14:00:01,15.73269653,0.0001776,53.2164,41.9289,32.4938,22.8684,-0.00069454,-0.0009727,0.0,0 STARLINK-4518,1 53550U 22101Z   22254.58334491 -.00097270  00000-0 -69454-3 0  9994,2 53550  53.2164  41.9289 0001776  32.4938  22.8684 15.73269653  1305,6727.696999999999,91.529,350.756,348.367,0.0
53550.0,STARLINK-4518,PAYLOAD,2022-09-11 22:00:00,15.73220779,0.0001986,53.2165,40.2791,27.8119,116.5171,-0.00028391,-0.00040314,0.0,0 STARLINK-4518,1 53550U 22101Z   22254.91667824 -.00040314  00000-0 -28391-3 0  9992,2 53550  53.2165  40.2791 0001986  27.8119 116.5171 15.73220779  1306,6727.8359999999975,91.532,351.037,348.365,0.0
53550.0,STARLINK-4518,PAYLOAD,2022-09-12 04:00:00,15.73219191,0.0001841999999999,53.2166,39.0417,27.9389,93.1511,-6.708300000000001e-05,-0.00010033,0.0,0 STARLINK-4518,1 53550U 22101Z   22255.16667824 -.00010033  00000-0 -67083-4 0  9997,2 53550  53.2166  39.0417 0001842  27.9389  93.1511 15.73219191  3709,6727.84,91.532,350.945,348.466,0.0
53550.0,STARLINK-4518,PAYLOAD,2022-09-12 12:00:00,15.7320948,0.0001841,53.2168,37.3923,26.4075,183.6303,0.00020553,0.00028334,0.0,0 STARLINK-4518,1 53550U 22101Z   22255.50001157  .00028334  00000-0  20553-3 0  9997,2 53550  53.2168  37.3923 0001841  26.4075 183.6303 15.73209480  1307,6727.868,91.533,350.972,348.495,0.0
53550.0,STARLINK-4518,PAYLOAD,2022-09-12 22:00:00,15.73202777,0.0002169,53.2161,35.3317,18.4146,32.8054,0.00021349,0.00029451,0.0,0 STARLINK-4518,1 53550U 22101Z   22255.91667824  .00029451  00000-0  21349-3 0  9996,2 53550  53.2161  35.3317 0002169  18.4146  32.8054 15.73202777  1309,6727.887,91.533,351.212,348.293,0.0
53550.0,STARLINK-4518,PAYLOAD,2022-09-13 06:00:00,15.7317413,0.0001949,53.2162,33.6803,24.5077,115.6709,0.00050673,0.00071023,0.0,0 STARLINK-4518,1 53550U 22101Z   22256.25001157  .00071023  00000-0  50673-3 0  9999,2 53550  53.2162  33.6803 0001949  24.5077 115.6709 15.73174130  3879,6727.969,91.535,351.145,348.523,0.0
53550.0,STARLINK-4518,PAYLOAD,2022-09-13 14:00:01,15.73208236,0.0002228,53.2167,32.0323,27.4134,201.6983,1.2528e-05,1.138e-05,0.0,0 STARLINK-4518,1 53550U 22101Z   22256.58334491  .00001138  00000-0  12528-4 0  9993,2 53550  53.2167  32.0323 0002228  27.4134 201.6983 15.73208236  1302,6727.871999999999,91.533,351.236,348.23800000000006,0.0
53550.0,STARLINK-4518,PAYLOAD,2022-09-13 16:00:00,15.73196999,0.0002318,53.2166,31.6202,27.2762,314.0739,0.00018326,0.00025174,0.0,0 STARLINK-4518,1 53550U 22101Z   22256.66667824  .00025174  00000-0  18326-3 0  9998,2 53550  53.2166  31.6202 0002318  27.2762 314.0739 15.73196999  3938,6727.904,91.533,351.32800000000015,348.209,0.0
53550.0,STARLINK-4518,PAYLOAD,2022-09-13 22:00:00,15.73289367,0.0002316,53.2164,30.3816,20.4379,297.5953,-0.0013372,-0.00184961,0.0,0 STARLINK-4518,1 53550U 22101Z   22256.91667824 -.00184961  00000-0 -13372-2 0  9993,2 53550  53.2164  30.3816 0002316  20.4379 297.5953 15.73289367  1304,6727.64,91.528,351.064,347.94699999999995,0.0
53550.0,STARLINK-4518,PAYLOAD,2022-09-14 04:00:00,15.73182497,0.0002103,53.217,29.1448,19.3383,275.3708,-0.00011967,-0.0001737,0.0,0 STARLINK-4518,1 53550U 22101Z   22257.16667824 -.00017370  00000-0 -11967-3 0  9999,2 53550  53.2170  29.1448 0002103  19.3383 275.3708 15.73182497  4013,6727.945,91.534,351.225,348.395,0.0
53550.0,STARLINK-4518,PAYLOAD,2022-09-14 14:00:01,15.73178968,0.0002326,53.2169,27.0841,18.7235,117.0938,0.00022352,0.00030838,0.0,0 STARLINK-4518,1 53550U 22101Z   22257.58334491  .00030838  00000-0  22352-3 0  9998,2 53550  53.2169  27.0841 0002326  18.7235 117.0938 15.73178968  1305,6727.955,91.534,351.385,348.255,0.0
53550.0,STARLINK-4518,PAYLOAD,2022-09-14 20:00:01,15.73199604,0.0002528,53.2167,25.8478,18.7996,93.7023,3.4931e-05,4.283e-05,0.0,0 STARLINK-4518,1 53550U 22101Z   22257.83334491  .00004283  00000-0  34931-4 0  9998,2 53550  53.2167  25.8478 0002528  18.7996  93.7023 15.73199604  4121,6727.896,91.533,351.462,348.06,0.0
53550.0,STARLINK-4518,PAYLOAD,2022-09-14 22:00:00,15.73212749,0.0002519,53.2164,25.435,19.6365,205.0933,-0.00023816,-0.00033935,0.0,0 STARLINK-4518,1 53550U 22101Z   22257.91667824 -.00033935  00000-0 -23816-3 0  9993,2 53550  53.2164  25.4350 0002519  19.6365 205.0933 15.73212749  1304,6727.859,91.532,351.4190000000001,348.029,0.0
53550.0,STARLINK-4518,PAYLOAD,2022-09-15 14:00:01,15.73290984,0.0002525,53.2166,22.136,21.2929,21.3149,-0.0004536,-0.00064058,0.0,0 STARLINK-4518,1 53550U 22101Z   22258.58334491 -.00064058  00000-0 -45360-3 0  9996,2 53550  53.2166  22.1360 0002525  21.2929  21.3149 15.73290984  1308,6727.636,91.528,351.2,347.802,0.0
53550.0,STARLINK-4518,PAYLOAD,2022-09-15 22:00:00,15.73258021,0.0002648,53.2167,20.4865,18.8395,112.7777,-0.00042387,-0.00059847,0.0,0 STARLINK-4518,1 53550U 22101Z   22258.91667824 -.00059847  00000-0 -42387-3 0  9998,2 53550  53.2167  20.4865 0002648  18.8395 112.7777 15.73258021  4294,6727.73,91.53,351.376,347.81300000000016,0.0
53550.0,STARLINK-4518,PAYLOAD,2022-09-16 14:00:01,15.73169457,0.0002783,53.2169,17.1873,22.0742,287.4217,-0.00026439,-0.00037522,0.0,0 STARLINK-4518,1 53550U 22101Z   22259.58334491 -.00037522  00000-0 -26439-3 0  9999,2 53550  53.2169  17.1873 0002783  22.0742 287.4217 15.73169457  1303,6727.982,91.535,351.72,347.975,0.0
53550.0,STARLINK-4518,PAYLOAD,2022-09-16 22:00:00,15.73145047,0.0002827,53.2165,15.5378,19.0711,19.3001,-0.00017084,-0.00024477,0.0,0 STARLINK-4518,1 53550U 22101Z   22259.91667824 -.00024477  00000-0 -17084-3 0  9996,2 53550  53.2165  15.5378 0002827  19.0711  19.3001 15.73145047  1304,6728.052,91.536,351.819,348.015,0.0
53550.0,STARLINK-4518,PAYLOAD,2022-09-17 06:00:00,15.73114945,0.0002592,53.2166,13.8869,20.7,106.5254,0.0006388,0.00089673,0.0,0 STARLINK-4518,1 53550U 22101Z   22260.25001157  .00089673  00000-0  63880-3 0  9998,2 53550  53.2166  13.8869 0002592  20.7000 106.5254 15.73114945  4507,6728.138000000001,91.538,351.747,348.259,0.0
53550.0,STARLINK-4518,PAYLOAD,2022-09-17 14:00:01,15.73179767,0.0002884999999999,53.2166,12.2394,19.765,196.334,0.00028493,0.00039526,0.0,0 STARLINK-4518,1 53550U 22101Z   22260.58334491  .00039526  00000-0  28493-3 0  9997,2 53550  53.2166  12.2394 0002885  19.7650 196.3340 15.73179767  1308,6727.953,91.534,351.759,347.87699999999984,0.0
53550.0,STARLINK-4518,PAYLOAD,2022-09-17 22:00:00,15.73151132,0.000302,53.2166,10.587,19.9574,285.0538,0.0015642999999999,0.00224434,0.0,0 STARLINK-4518,1 53550U 22101Z   22260.91667824  .00224434  00000-0  15643-2 0  9999,2 53550  53.2166  10.5870 0003020  19.9574 285.0538 15.73151132  4604,6728.035,91.536,351.931,347.86800000000005,0.0
53550.0,STARLINK-4518,PAYLOAD,2022-09-18 04:00:00,15.73243739,0.0002773,53.2169,9.3509,17.9796,263.766,0.00027123,0.00037691,0.0,0 STARLINK-4518,1 53550U 22101Z   22261.16667824  .00037691  00000-0  27123-3 0  9991,2 53550  53.2169   9.3509 0002773  17.9796 263.7660 15.73243739  4648,6727.77,91.531,351.501,347.77,0.0
53550.0,STARLINK-4518,PAYLOAD,2022-09-18 14:00:01,15.73262282,0.0003018999999999,53.217,7.2906,15.0168,108.0394,-0.00030363,-0.00043142,0.0,0 STARLINK-4518,1 53550U 22101Z   22261.58335648 -.00043142  00000-0 -30363-3 0  9993,2 53550  53.2170   7.2906 0003019  15.0168 108.0394 15.73262282  4711,6727.718000000003,91.53,351.61400000000015,347.552,0.0
53550.0,STARLINK-4518,PAYLOAD,2022-09-18 22:00:00,15.73247216,0.0002978,53.2167,5.6405,9.9854,201.9885,-0.00026443,-0.00037652,0.0,0 STARLINK-4518,1 53550U 22101Z   22261.91667824 -.00037652  00000-0 -26443-3 0  9997,2 53550  53.2167   5.6405 0002978   9.9854 201.9885 15.73247216  1300,6727.761,91.53,351.629,347.622,0.0
53550.0,STARLINK-4518,PAYLOAD,2022-09-19 06:00:02,15.73197203,0.0002782,53.2169,3.9894,7.6316,293.3812,0.00030577,0.00042509,0.0,0 STARLINK-4518,1 53550U 22101Z   22262.25002315  .00042509  00000-0  30577-3 0  9991,2 53550  53.2169   3.9894 0002782   7.6316 293.3812 15.73197203  4810,6727.903,91.533,351.64,347.896,0.0
53550.0,STARLINK-4518,PAYLOAD,2022-09-19 14:00:01,15.73200384,0.000304,53.2169,2.3416,5.218,24.68,-6.5915e-05,-9.865e-05,0.0,0 STARLINK-4518,1 53550U 22101Z   22262.58334491 -.00009865  00000-0 -65915-4 0  9995,2 53550  53.2169   2.3416 0003040   5.2180  24.6800 15.73200384  1302,6727.894,91.533,351.80400000000014,347.714,0.0
53550.0,STARLINK-4518,PAYLOAD,2022-09-19 22:00:00,15.73198074,0.0003181,53.217,0.6909,13.0667,105.7268,0.00012515,0.00016979,0.0,0 STARLINK-4518,1 53550U 22101Z   22262.91667824  .00016979  00000-0  12515-3 0  9990,2 53550  53.2170   0.6909 0003181  13.0667 105.7268 15.73198074  1306,6727.901,91.533,351.906,347.626,0.0
53550.0,STARLINK-4518,PAYLOAD,2022-09-20 06:00:00,15.7324655,0.0003036,53.2173,359.0409,14.2865,193.4426,-1.6895e-06,-8.61e-06,0.0,0 STARLINK-4518,1 53550U 22101Z   22263.25001157 -.00000861  00000-0 -16895-5 0  9991,2 53550  53.2173 359.0409 0003036  14.2865 193.4426 15.73246550  4976,6727.762,91.53,351.67,347.585,0.0
53550.0,STARLINK-4518,PAYLOAD,2022-09-20 14:00:01,15.73231228,0.0003364,53.2174,357.3934,11.4455,285.2716,-6.9031e-05,-0.00010316,0.0,0 STARLINK-4518,1 53550U 22101Z   22263.58334491 -.00010316  00000-0 -69031-4 0  9992,2 53550  53.2174 357.3934 0003364  11.4455 285.2716 15.73231228  1301,6727.806,91.531,351.934,347.408,0.0
53550.0,STARLINK-4518,PAYLOAD,2022-09-20 22:00:01,15.73241983,0.0003348999999999,53.2171,355.74300000000005,9.7886,15.9448,-0.00071658,-0.00100218,0.0,0 STARLINK-4518,1 53550U 22101Z   22263.91668981 -.00100218  00000-0 -71658-3 0  9991,2 53550  53.2171 355.7430 0003349   9.7886  15.9448 15.73241983  5079,6727.775,91.531,351.894,347.38699999999994,0.0
